NORAD_CAT_ID,OBJECT_NAME,OBJECT_TYPE,EPOCH,MEAN_MOTION,ECCENTRICITY,INCLINATION,RA_OF_ASC_NODE,ARG_OF_PERICENTER,MEAN_ANOMALY,BSTAR,MEAN_MOTION_DOT,MEAN_MOTION_DDOT,TLE_LINE0,TLE_LINE1,TLE_LINE2,SEMIMAJOR_AXIS,PERIOD,APOGEE,PERIGEE,DECAYED
52686.0,STARLINK-4005,PAYLOAD,2023-09-26 20:04:43,15.08838495,0.0001364,53.2165,201.2698,76.8171,283.2973,-3.2762e-05,-8.09e-06,0.0,0 STARLINK-4005,1 52686U 22053AG  23269.83661615 -.00000809  00000-0 -32762-4 0  9990,2 52686  53.2165 201.2698 0001364  76.8171 283.2973 15.08838495 76034,6917.885,95.438,540.694,538.806,0.0
52686.0,STARLINK-4005,PAYLOAD,2023-09-27 02:26:16,15.08835144,0.0001271,53.2166,200.0803,94.7613,265.3524,-8.6233e-05,-1.66e-05,0.0,0 STARLINK-4005,1 52686U 22053AG  23270.10157719 -.00001660  00000-0 -86233-4 0  9995,2 52686  53.2166 200.0803 0001271  94.7613 265.3524 15.08835144 75699,6917.895,95.438,540.639,538.881,0.0
52686.0,STARLINK-4005,PAYLOAD,2023-09-27 11:58:35,15.08831223,0.0001325,53.2166,198.2966,95.0659,265.0485,-0.00013343,-2.41e-05,0.0,0 STARLINK-4005,1 52686U 22053AG  23270.49902057 -.00002410  00000-0 -13343-3 0  9995,2 52686  53.2166 198.2966 0001325  95.0659 265.0485 15.08831223 76138,6917.907,95.438,540.689,538.856,0.0
52686.0,STARLINK-4005,PAYLOAD,2023-09-28 00:41:42,15.08826308,0.0001372,53.2184,195.9214,84.9267,275.1882,-0.00019301,-3.357e-05,0.0,0 STARLINK-4005,1 52686U 22053AG  23271.02895840 -.00003357  00000-0 -19301-3 0  9997,2 52686  53.2184 195.9214 0001372  84.9267 275.1882 15.08826308 75839,6917.922,95.438,540.736,538.838,0.0
52686.0,STARLINK-4005,PAYLOAD,2023-09-28 03:52:27,15.088315,0.0001369,53.2178,195.3242,81.8432,278.2716,-0.00017226,-3.028e-05,0.0,0 STARLINK-4005,1 52686U 22053AG  23271.16143417 -.00003028  00000-0 -17226-3 0  9997,2 52686  53.2178 195.3242 0001369  81.8432 278.2716 15.08831500 75855,6917.906,95.438,540.718,538.824,0.0
52686.0,STARLINK-4005,PAYLOAD,2023-09-29 03:43:14,15.08779305,0.0001592,53.2165,190.8625,110.225,249.8913,0.00097453,0.0001523,0.0,0 STARLINK-4005,1 52686U 22053AG  23272.15502338  .00015230  00000-0  97453-3 0  9994,2 52686  53.2165 190.8625 0001592 110.2250 249.8913 15.08779305 76385,6918.066,95.441,541.032,538.83,0.0
52686.0,STARLINK-4005,PAYLOAD,2023-09-30 01:58:37,15.08854116,0.0001342,53.2164,186.7002,94.0788,266.0357,0.00031328,4.703e-05,0.0,0 STARLINK-4005,1 52686U 22053AG  23273.08238004  .00004703  00000-0  31328-3 0  9995,2 52686  53.2164 186.7002 0001342  94.0788 266.0357 15.08854116 76146,6917.837,95.437,540.631,538.774,0.0
52686.0,STARLINK-4005,PAYLOAD,2023-09-30 11:30:56,15.08842894,0.0001323,53.2166,184.9157,104.5742,255.5397,1.728e-05,-1.3e-07,0.0,0 STARLINK-4005,1 52686U 22053AG  23273.47982373 -.00000013  00000-0  17280-4 0  9996,2 52686  53.2166 184.9157 0001323 104.5742 255.5397 15.08842894 76209,6917.872,95.437,540.652,538.821,0.0
52686.0,STARLINK-4005,PAYLOAD,2023-10-01 03:24:48,15.08849963,0.0001368,53.2163,181.943,99.9553,260.1594,0.0001617,2.287e-05,0.0,0 STARLINK-4005,1 52686U 22053AG  23274.14222250  .00002287  00000-0  16170-3 0  9992,2 52686  53.2163 181.9430 0001368  99.9553 260.1594 15.08849963 76680,6917.85,95.437,540.661,538.769,0.0
52686.0,STARLINK-4005,PAYLOAD,2023-10-02 00:04:48,15.08849399,0.0001616,53.2168,178.076,107.5309,252.5859,0.00023793,3.502e-05,0.0,0 STARLINK-4005,1 52686U 22053AG  23275.00334204  .00003502  00000-0  23793-3 0  9991,2 52686  53.2168 178.0760 0001616 107.5309 252.5859 15.08849399 76434,6917.852,95.437,540.835,538.599,0.0
52686.0,STARLINK-4005,PAYLOAD,2023-10-02 03:15:34,15.08866159,0.0001399,53.2169,177.4816,96.9449,263.1702,0.00056087,8.656e-05,0.0,0 STARLINK-4005,1 52686U 22053AG  23275.13581694  .00008656  00000-0  56087-3 0  9999,2 52686  53.2169 177.4816 0001399  96.9449 263.1702 15.08866159 76454,6917.8,95.436,540.633,538.698,0.0
52686.0,STARLINK-4005,PAYLOAD,2023-10-02 20:44:50,15.08837751,0.0001603,53.2168,174.2108,99.1385,260.9788,0.00012606,1.719e-05,0.0,0 STARLINK-4005,1 52686U 22053AG  23275.86446791  .00001719  00000-0  12606-3 0  9999,2 52686  53.2168 174.2108 0001603  99.1385 260.9788 15.08837751 76561,6917.887,95.438,540.861,538.643,0.0
52686.0,STARLINK-4005,PAYLOAD,2023-10-03 03:06:22,15.08842267,0.0001702,53.2165,173.0194,105.8394,254.2786,8.4167e-05,1.052e-05,0.0,0 STARLINK-4005,1 52686U 22053AG  23276.12942489  .00001052  00000-0  84167-4 0  9996,2 52686  53.2165 173.0194 0001702 105.8394 254.2786 15.08842267 76983,6917.873,95.437,540.916,538.561,0.0
52686.0,STARLINK-4005,PAYLOAD,2023-10-03 22:11:00,15.08842273,0.0001767,53.2168,169.4498,107.7852,252.3333,-8.4071e-05,-1.626e-05,0.0,0 STARLINK-4005,1 52686U 22053AG  23276.92430696 -.00001626  00000-0 -84071-4 0  9999,2 52686  53.2168 169.4498 0001767 107.7852 252.3333 15.08842273 77102,6917.873,95.437,540.961,538.516,0.0
52686.0,STARLINK-4005,PAYLOAD,2023-10-04 01:21:46,15.08848095,0.0001683,53.2171,168.8562,90.2436,269.8749,2.0814e-05,4.3e-07,0.0,0 STARLINK-4005,1 52686U 22053AG  23277.05678516  .00000043  00000-0  20814-4 0  9994,2 52686  53.2171 168.8562 0001683  90.2436 269.8749 15.08848095 76743,6917.856,95.437,540.885,538.556,0.0
52686.0,STARLINK-4005,PAYLOAD,2023-10-04 09:18:41,15.08848947,0.0001571,53.217,167.3699,86.0717,274.0455,6.7233e-05,7.82e-06,0.0,0 STARLINK-4005,1 52686U 22053AG  23277.38798405  .00000782  00000-0  67233-4 0  9996,2 52686  53.2170 167.3699 0001571  86.0717 274.0455 15.08848947 77174,6917.853,95.437,540.805,538.631,0.0
52686.0,STARLINK-4005,PAYLOAD,2023-10-04 22:01:47,15.08844666,0.000163,53.2172,164.9954,91.8049,268.313,0.00025797,3.82e-05,0.0,0 STARLINK-4005,1 52686U 22053AG  23277.91790732  .00003820  00000-0  25797-3 0  9994,2 52686  53.2172 164.9954 0001630  91.8049 268.3130 15.08844666 77250,6917.866,95.437,540.859,538.604,0.0
52686.0,STARLINK-4005,PAYLOAD,2023-10-05 09:09:29,15.08843661,0.0001454,53.2158,162.9086,78.4192,281.6963,0.0001426,1.982e-05,0.0,0 STARLINK-4005,1 52686U 22053AG  23278.38158629  .00001982  00000-0  14260-3 0  9999,2 52686  53.2158 162.9086 0001454  78.4192 281.6963 15.08843661 76943,6917.869,95.437,540.74,538.728,0.0
52686.0,STARLINK-4005,PAYLOAD,2023-10-05 21:52:34,15.08835684,0.0001128,53.2156,160.5341,92.4295,267.6827,-8.8375e-05,-1.694e-05,0.0,0 STARLINK-4005,1 52686U 22053AG  23278.91150943 -.00001694  00000-0 -88375-4 0  9990,2 52686  53.2156 160.5341 0001128  92.4295 267.6827 15.08835684 77408,6917.894,95.438,540.539,538.978,0.0
52686.0,STARLINK-4005,PAYLOAD,2023-10-06 01:03:20,15.08839335,0.0001231,53.2157,159.9376,93.122,266.9912,4.4469e-06,-2.17e-06,0.0,0 STARLINK-4005,1 52686U 22053AG  23279.04398825 -.00000217  00000-0  44469-5 0  9994,2 52686  53.2157 159.9376 0001231  93.1220 266.9912 15.08839335 77044,6917.882,95.438,540.599,538.896,0.0
52686.0,STARLINK-4005,PAYLOAD,2023-10-06 09:00:16,15.08836656,0.0001195,53.2163,158.4517,87.4671,272.6458,-7.7017e-06,-4.1e-06,0.0,0 STARLINK-4005,1 52686U 22053AG  23279.37519057 -.00000410  00000-0 -77017-5 0  9993,2 52686  53.2163 158.4517 0001195  87.4671 272.6458 15.08836656 77476,6917.891,95.438,540.582,538.929,0.0
52686.0,STARLINK-4005,PAYLOAD,2023-10-06 21:43:22,15.08830674,0.0001174,53.2163,156.0731,85.9481,274.1646,-0.00017677,-3.099e-05,0.0,0 STARLINK-4005,1 52686U 22053AG  23279.90511755 -.00003099  00000-0 -17677-3 0  9999,2 52686  53.2163 156.0731 0001174  85.9481 274.1646 15.08830674 77556,6917.909,95.438,540.586,538.962,0.0
52686.0,STARLINK-4005,PAYLOAD,2023-10-07 00:54:08,15.08832414,0.0001292,53.2167,155.4785,85.8898,274.2242,-0.00014052,-2.523e-05,0.0,0 STARLINK-4005,1 52686U 22053AG  23280.03759746 -.00002523  00000-0 -14052-3 0  9994,2 52686  53.2167 155.4785 0001292  85.8898 274.2242 15.08832414 77191,6917.904,95.438,540.662,538.875,0.0
52686.0,STARLINK-4005,PAYLOAD,2023-10-07 02:29:31,15.08839655,0.0001214,53.2172,155.1789,76.9595,283.1532,-6.2037e-05,-1.275e-05,0.0,0 STARLINK-4005,1 52686U 22053AG  23280.10383751 -.00001275  00000-0 -62037-4 0  9991,2 52686  53.2172 155.1789 0001214  76.9595 283.1532 15.08839655 77585,6917.881,95.438,540.586,538.907,0.0
52686.0,STARLINK-4005,PAYLOAD,2023-10-07 21:34:08,15.08845379,0.000107,53.2174,151.6107,85.4856,274.6258,0.0001332,1.833e-05,0.0,0 STARLINK-4005,1 52686U 22053AG  23280.89871321  .00001833  00000-0  13320-3 0  9990,2 52686  53.2174 151.6107 0001070  85.4856 274.6258 15.08845379 77701,6917.864,95.437,540.469,538.989,0.0
52686.0,STARLINK-4005,PAYLOAD,2023-10-08 00:44:55,15.08842286,0.0001022,53.2169,151.0157,90.5491,269.5619,0.00042499,6.483e-05,0.0,0 STARLINK-4005,1 52686U 22053AG  23281.03119577  .00006483  00000-0  42499-3 0  9990,2 52686  53.2169 151.0157 0001022  90.5491 269.5619 15.08842286 77341,6917.873,95.437,540.445,539.031,0.0
52686.0,STARLINK-4005,PAYLOAD,2023-10-08 08:41:51,15.08835904,0.0001065,53.2171,149.5296,78.5421,281.5691,8.4223e-05,1.053e-05,0.0,0 STARLINK-4005,1 52686U 22053AG  23281.36239906  .00001053  00000-0  84223-4 0  9995,2 52686  53.2171 149.5296 0001065  78.5421 281.5691 15.08835904 77394,6917.893,95.438,540.495,539.021,0.0
52686.0,STARLINK-4005,PAYLOAD,2023-10-08 15:03:25,15.08800735,9.86e-05,53.217,148.3401,81.1329,278.9774,-0.00029771,-5.017e-05,0.0,0 STARLINK-4005,1 52686U 22053AG  23281.62738165 -.00005017  00000-0 -29771-3 0  9997,2 52686  53.2170 148.3401 0000986  81.1329 278.9774 15.08800735 77437,6918.0,95.44,540.548,539.183,0.0
52686.0,STARLINK-4005,PAYLOAD,2023-10-08 21:24:57,15.08822989,0.0001284,53.2163,147.152,95.9775,264.1364,-0.00011161,-2.063e-05,0.0,0 STARLINK-4005,1 52686U 22053AG  23281.89233428 -.00002063  00000-0 -11161-3 0  9990,2 52686  53.2163 147.1520 0001284  95.9775 264.1364 15.08822989 77851,6917.932,95.439,540.686,538.909,0.0
52686.0,STARLINK-4005,PAYLOAD,2023-10-09 00:35:43,15.08832307,0.0001082,53.2164,146.5551,89.949,270.1626,7.9335e-05,9.75e-06,0.0,0 STARLINK-4005,1 52686U 22053AG  23282.02481099  .00000975  00000-0  79335-4 0  9991,2 52686  53.2164 146.5551 0001082  89.9490 270.1626 15.08832307 77495,6917.904,95.438,540.517,539.02,0.0
